[{"OBJECT_NAME":"TRANSPORTER-16 OBJECT M","OBJECT_ID":"2026-067M","EPOCH":"2026-04-25T14:24:40.316832","MEAN_MOTION":15.18448086,"ECCENTRICITY":0.00030804,"INCLINATION":97.4509,"RA_OF_ASC_NODE":74.8651,"ARG_OF_PERICENTER":122.3911,"MEAN_ANOMALY":237.7621,"EPHEMERIS_TYPE":0,"CLASSIFICATION_TYPE":"U","NORAD_CAT_ID":68427,"ELEMENT_SET_NO":999,"REV_AT_EPOCH":396,"BSTAR":0.00043727372,"MEAN_MOTION_DOT":8.944e-5,"MEAN_MOTION_DDOT":0},{"OBJECT_NAME":"OUT OF THE BOX (OOTB)","OBJECT_ID":"2026-067N","EPOCH":"2026-04-25T12:55:43.365504","MEAN_MOTION":15.18092862,"ECCENTRICITY":0.00025261,"INCLINATION":97.4533,"RA_OF_ASC_NODE":74.8019,"ARG_OF_PERICENTER":131.6817,"MEAN_ANOMALY":228.4633,"EPHEMERIS_TYPE":0,"CLASSIFICATION_TYPE":"U","NORAD_CAT_ID":68428,"ELEMENT_SET_NO":999,"REV_AT_EPOCH":395,"BSTAR":0.00018022222,"MEAN_MOTION_DOT":3.607e-5,"MEAN_MOTION_DDOT":0},{"OBJECT_NAME":"TRANSPORTER-16 OBJECT P","OBJECT_ID":"2026-067P","EPOCH":"2026-04-25T12:56:12.687936","MEAN_MOTION":15.1825447,"ECCENTRICITY":0.00025229,"INCLINATION":97.4475,"RA_OF_ASC_NODE":74.7812,"ARG_OF_PERICENTER":159.4267,"MEAN_ANOMALY":200.7069,"EPHEMERIS_TYPE":0,"CLASSIFICATION_TYPE":"U","NORAD_CAT_ID":68429,"ELEMENT_SET_NO":999,"REV_AT_EPOCH":395,"BSTAR":0.0005713777,"MEAN_MOTION_DOT":0.00011646,"MEAN_MOTION_DDOT":0},{"OBJECT_NAME":"TRANSPORTER-16 OBJECT Q","OBJECT_ID":"2026-067Q","EPOCH":"2026-04-25T12:51:40.209120","MEAN_MOTION":15.18331524,"ECCENTRICITY":0.00023405,"INCLINATION":97.4463,"RA_OF_ASC_NODE":74.7834,"ARG_OF_PERICENTER":102.8062,"MEAN_ANOMALY":257.3434,"EPHEMERIS_TYPE":0,"CLASSIFICATION_TYPE":"U","NORAD_CAT_ID":68430,"ELEMENT_SET_NO":999,"REV_AT_EPOCH":395,"BSTAR":0.00032251835,"MEAN_MOTION_DOT":6.554e-5,"MEAN_MOTION_DDOT":0},{"OBJECT_NAME":"DISCO-2","OBJECT_ID":"2026-067R","EPOCH":"2026-04-25T12:53:23.144352","MEAN_MOTION":15.18270337,"ECCENTRICITY":0.00031763,"INCLINATION":97.4564,"RA_OF_ASC_NODE":74.8144,"ARG_OF_PERICENTER":136.0285,"MEAN_ANOMALY":224.1203,"EPHEMERIS_TYPE":0,"CLASSIFICATION_TYPE":"U","NORAD_CAT_ID":68431,"ELEMENT_SET_NO":999,"REV_AT_EPOCH":395,"BSTAR":0.00038990147,"MEAN_MOTION_DOT":7.925e-5,"MEAN_MOTION_DDOT":0},{"OBJECT_NAME":"TRANSPORTER-16 OBJECT S","OBJECT_ID":"2026-067S","EPOCH":"2026-04-24T08:30:26.618400","MEAN_MOTION":15.1798277,"ECCENTRICITY":0.0002195,"INCLINATION":97.4521,"RA_OF_ASC_NODE":73.6276,"ARG_OF_PERICENTER":159.3,"MEAN_ANOMALY":200.8323,"EPHEMERIS_TYPE":0,"CLASSIFICATION_TYPE":"U","NORAD_CAT_ID":68432,"ELEMENT_SET_NO":999,"REV_AT_EPOCH":377,"BSTAR":0.00024397855,"MEAN_MOTION_DOT":4.891e-5,"MEAN_MOTION_DDOT":0},{"OBJECT_NAME":"T.MICROSAT-2","OBJECT_ID":"2026-067T","EPOCH":"2026-04-25T13:26:08.355552","MEAN_MOTION":15.16882542,"ECCENTRICITY":0.00040301,"INCLINATION":97.4533,"RA_OF_ASC_NODE":74.7748,"ARG_OF_PERICENTER":233.5465,"MEAN_ANOMALY":126.5397,"EPHEMERIS_TYPE":0,"CLASSIFICATION_TYPE":"U","NORAD_CAT_ID":68433,"ELEMENT_SET_NO":999,"REV_AT_EPOCH":395,"BSTAR":0.00027653586,"MEAN_MOTION_DOT":5.381e-5,"MEAN_MOTION_DDOT":0},{"OBJECT_NAME":"TRANSPORTER-16 OBJECT U","OBJECT_ID":"2026-067U","EPOCH":"2026-04-25T14:27:25.134336","MEAN_MOTION":15.18226709,"ECCENTRICITY":0.00029747,"INCLINATION":97.4543,"RA_OF_ASC_NODE":74.8728,"ARG_OF_PERICENTER":121.3012,"MEAN_ANOMALY":238.8514,"EPHEMERIS_TYPE":0,"CLASSIFICATION_TYPE":"U","NORAD_CAT_ID":68434,"ELEMENT_SET_NO":999,"REV_AT_EPOCH":396,"BSTAR":0.00020050741,"MEAN_MOTION_DOT":4.036e-5,"MEAN_MOTION_DDOT":0},{"OBJECT_NAME":"ION SCV-019 (ASTOUNDING ALEXANDRA)","OBJECT_ID":"2026-067V","EPOCH":"2026-04-25T13:05:52.194336","MEAN_MOTION":15.17660913,"ECCENTRICITY":0.00015906,"INCLINATION":97.4512,"RA_OF_ASC_NODE":74.7865,"ARG_OF_PERICENTER":182.5065,"MEAN_ANOMALY":177.6161,"EPHEMERIS_TYPE":0,"CLASSIFICATION_TYPE":"U","NORAD_CAT_ID":68435,"ELEMENT_SET_NO":999,"REV_AT_EPOCH":395,"BSTAR":0.00015066273,"MEAN_MOTION_DOT":2.966e-5,"MEAN_MOTION_DDOT":0},{"OBJECT_NAME":"HAWK-14B","OBJECT_ID":"2026-067W","EPOCH":"2026-04-25T13:07:11.948448","MEAN_MOTION":15.17804915,"ECCENTRICITY":0.00016955,"INCLINATION":97.4509,"RA_OF_ASC_NODE":74.7847,"ARG_OF_PERICENTER":183.2561,"MEAN_ANOMALY":176.8662,"EPHEMERIS_TYPE":0,"CLASSIFICATION_TYPE":"U","NORAD_CAT_ID":68436,"ELEMENT_SET_NO":999,"REV_AT_EPOCH":395,"BSTAR":0.00018866527,"MEAN_MOTION_DOT":3.747e-5,"MEAN_MOTION_DDOT":0},{"OBJECT_NAME":"TRANSPORTER-16 OBJECT X","OBJECT_ID":"2026-067X","EPOCH":"2026-04-25T14:33:33.028128","MEAN_MOTION":15.18185108,"ECCENTRICITY":0.00018819,"INCLINATION":97.4471,"RA_OF_ASC_NODE":74.8416,"ARG_OF_PERICENTER":160.9677,"MEAN_ANOMALY":199.1628,"EPHEMERIS_TYPE":0,"CLASSIFICATION_TYPE":"U","NORAD_CAT_ID":68437,"ELEMENT_SET_NO":999,"REV_AT_EPOCH":396,"BSTAR":0.00066399883,"MEAN_MOTION_DOT":0.0001352,"MEAN_MOTION_DDOT":0},{"OBJECT_NAME":"TRANSPORTER-16 OBJECT Y","OBJECT_ID":"2026-067Y","EPOCH":"2026-04-25T19:17:54.003264","MEAN_MOTION":15.18297706,"ECCENTRICITY":0.00022801,"INCLINATION":97.4487,"RA_OF_ASC_NODE":75.0437,"ARG_OF_PERICENTER":176.2809,"MEAN_ANOMALY":183.8443,"EPHEMERIS_TYPE":0,"CLASSIFICATION_TYPE":"U","NORAD_CAT_ID":68438,"ELEMENT_SET_NO":999,"REV_AT_EPOCH":399,"BSTAR":0.00088570644,"MEAN_MOTION_DOT":0.00018127,"MEAN_MOTION_DDOT":0},{"OBJECT_NAME":"TRANSPORTER-16 OBJECT Z","OBJECT_ID":"2026-067Z","EPOCH":"2026-04-25T13:02:56.474016","MEAN_MOTION":15.18044764,"ECCENTRICITY":0.00012213,"INCLINATION":97.4483,"RA_OF_ASC_NODE":74.7782,"ARG_OF_PERICENTER":175.2131,"MEAN_ANOMALY":184.9115,"EPHEMERIS_TYPE":0,"CLASSIFICATION_TYPE":"U","NORAD_CAT_ID":68439,"ELEMENT_SET_NO":999,"REV_AT_EPOCH":395,"BSTAR":0.00074963863,"MEAN_MOTION_DOT":0.00015214,"MEAN_MOTION_DDOT":0},{"OBJECT_NAME":"TRANSPORTER-16 OBJECT AA","OBJECT_ID":"2026-067AA","EPOCH":"2026-04-25T13:00:57.878784","MEAN_MOTION":15.18226669,"ECCENTRICITY":0.00013863,"INCLINATION":97.4481,"RA_OF_ASC_NODE":74.7793,"ARG_OF_PERICENTER":174.6203,"MEAN_ANOMALY":185.5046,"EPHEMERIS_TYPE":0,"CLASSIFICATION_TYPE":"U","NORAD_CAT_ID":68440,"ELEMENT_SET_NO":999,"REV_AT_EPOCH":395,"BSTAR":0.0010365612,"MEAN_MOTION_DOT":0.00021191,"MEAN_MOTION_DDOT":0},{"OBJECT_NAME":"HAWK-14C","OBJECT_ID":"2026-067AB","EPOCH":"2026-04-25T13:07:30.813024","MEAN_MOTION":15.17802491,"ECCENTRICITY":8.319e-5,"INCLINATION":97.445,"RA_OF_ASC_NODE":74.7442,"ARG_OF_PERICENTER":234.5311,"MEAN_ANOMALY":125.5846,"EPHEMERIS_TYPE":0,"CLASSIFICATION_TYPE":"U","NORAD_CAT_ID":68441,"ELEMENT_SET_NO":999,"REV_AT_EPOCH":395,"BSTAR":0.00018816091,"MEAN_MOTION_DOT":3.737e-5,"MEAN_MOTION_DDOT":0},{"OBJECT_NAME":"TRANSPORTER-16 OBJECT AC","OBJECT_ID":"2026-067AC","EPOCH":"2026-04-25T13:18:39.466080","MEAN_MOTION":15.17198004,"ECCENTRICITY":0.00026266,"INCLINATION":97.4502,"RA_OF_ASC_NODE":74.7712,"ARG_OF_PERICENTER":238.9101,"MEAN_ANOMALY":121.1875,"EPHEMERIS_TYPE":0,"CLASSIFICATION_TYPE":"U","NORAD_CAT_ID":68442,"ELEMENT_SET_NO":999,"REV_AT_EPOCH":395,"BSTAR":0.00029433038,"MEAN_MOTION_DOT":5.783e-5,"MEAN_MOTION_DDOT":0}]
